[{"OBJECT_NAME":"STARLINK-1746","OBJECT_ID":"2020-070BJ","EPOCH":"2026-03-10T00:00:02.999808","MEAN_MOTION":15.72577071,"ECCENTRICITY":0.00019759,"INCLINATION":53.0443,"RA_OF_ASC_NODE":113.4625,"ARG_OF_PERICENTER":101.3284,"MEAN_ANOMALY":240.7247,"EPHEMERIS_TYPE":0,"CLASSIFICATION_TYPE":"U","NORAD_CAT_ID":46588,"ELEMENT_SET_NO":999,"REV_AT_EPOCH":596,"BSTAR":0.001329381,"MEAN_MOTION_DOT":0.00185163,"MEAN_MOTION_DDOT":0},{"OBJECT_NAME":"STARLINK-11617 [DTC]","OBJECT_ID":"2025-048B","EPOCH":"2026-03-09T09:42:25.282656","MEAN_MOTION":15.70878522,"ECCENTRICITY":0.00011722,"INCLINATION":42.9985,"RA_OF_ASC_NODE":321.8568,"ARG_OF_PERICENTER":341.0873,"MEAN_ANOMALY":18.9951,"EPHEMERIS_TYPE":0,"CLASSIFICATION_TYPE":"U","NORAD_CAT_ID":63184,"ELEMENT_SET_NO":999,"REV_AT_EPOCH":5847,"BSTAR":0.0019420289,"MEAN_MOTION_DOT":0.00257016,"MEAN_MOTION_DDOT":0}]
